NOAA 1 [-]              
1 04793U 70106A   23052.80308697 -.00000028  00000+0  98269-4 0  9998
2 04793 101.5203 114.9913 0031765 196.0410 279.3952 12.54012175388844
NOAA 2 (ITOS-D) [-]     
1 06235U 72082A   23052.93784293 -.00000050  00000+0 -20877-4 0  9996
2 06235 101.9837  41.9844 0003898 321.3523  94.2626 12.53157857303227
NOAA 3 [-]              
1 06920U 73086A   23052.93310181 -.00000050  00000+0 -27272-4 0  9999
2 06920 102.2386  40.4720 0006403 190.0368 225.6274 12.40353422231918
NOAA 4 [-]              
1 07529U 74089A   23052.91569007 -.00000044  00000+0  15805-4 0  9991
2 07529 101.9464  38.5663 0008978 348.8109  67.0706 12.53165864207798
NOAA 5 [-]              
1 09057U 76077A   23052.89801104 -.00000045  00000+0 -26815-5 0  9998
2 09057 102.1392  23.5668 0010014  39.7851  16.7744 12.37780006104604
TIROS N [-]             
1 11060U 78096A   23053.12992366  .00000274  00000+0  15320-3 0  9995
2 11060  98.6010 104.8138 0011344 140.7490 219.4511 14.18494480507241
NOAA 6 [-]              
1 11416U 79057A   23053.43650184  .00000496  00000+0  19394-3 0  9992
2 11416  98.6590  69.6209 0009365 237.4652 122.5628 14.33933471277556
NOAA 7 [-]              
1 12553U 81059A   23052.84907276  .00000070  00000+0  57089-4 0  9993
2 12553  98.9645 104.9168 0012345 124.1223 236.1124 14.17381121153128
NOAA 8 [-]              
1 13923U 83022A   23052.92995388  .00000269  00000+0  12394-3 0  9996
2 13923  98.7074  47.7595 0014685 196.1728 163.8987 14.28911334 78036
NOAA 9 [-]              
1 15427U 84123A   23052.91092802  .00000237  00000+0  14269-3 0  9996
2 15427  99.0789  34.6284 0014834 174.9059 239.2992 14.16295669971928
NOAA 10 [-]             
1 16969U 86073A   23052.92105968  .00000276  00000+0  12794-3 0  9997
2 16969  98.5949  39.8115 0011273 305.1665 108.2574 14.28296865896443
NOAA 11 [-]             
1 19531U 88089A   23052.89530322  .00000127  00000+0  86200-4 0  9995
2 19531  98.4531  33.6060 0011177 174.1067 186.0241 14.15362216776106
NOAA 12 [-]             
1 21263U 91032A   23053.56065875  .00000166  00000+0  87376-4 0  9991
2 21263  98.5282  51.5217 0013069 332.1236  27.9243 14.26067947652635
NOAA 13 [-]             
1 22739U 93050A   23052.86568971  .00000241  00000+0  15150-3 0  9993
2 22739  98.5388  25.6394 0009437 357.1284   2.9834 14.12928174522271
NOAA 14 [-]             
1 23455U 94089A   23052.87961988  .00000082  00000+0  64537-4 0  9995
2 23455  98.4330  70.8681 0008889 333.7095  26.3627 14.14243153451960
NOAA 15 [B]             
1 25338U 98030A   23053.38876992  .00000242  00000+0  11930-3 0  9990
2 25338  98.6203  84.3361 0009316 290.5254  69.4926 14.26249160288898
NOAA 16 [-]             
1 26536U 00055A   23052.87326873  .00000152  00000+0  10319-3 0  9992
2 26536  98.6015 107.7280 0010793 167.6449 192.4991 14.13390839452585
NOAA 17 [-]             
1 27453U 02032A   23053.16024597  .00000328  00000+0  15834-3 0  9991
2 27453  98.7034   0.8868 0010658 266.2338  93.7622 14.25225763 74438
NOAA 18 [B]             
1 28654U 05018A   23053.41664613  .00000321  00000+0  19659-3 0  9991
2 28654  98.9207 128.3250 0013842 348.6923  11.3936 14.12868552915365
NOAA 19 [+]             
1 33591U 09005A   23053.44688862  .00000224  00000+0  14564-3 0  9994
2 33591  99.1173  97.4559 0013616 202.1471 157.9114 14.12692804723744
SUOMI NPP [+]           
1 37849U 11061A   23053.43035760  .00000168  00000+0  10065-3 0  9990
2 37849  98.7591 353.8090 0000865  73.9933  33.4814 14.19553842586658
NOAA 20 [+]             
1 43013U 17073A   23053.44344481  .00000154  00000+0  93702-4 0  9998
2 43013  98.7428 353.3759 0001550  78.2656 281.8694 14.19528477272693
NOAA 21 (JPSS-2) [+]    
1 54234U 22150A   23052.82657953  .00000166  00000+0  99538-4 0  9995
2 54234  98.7067 352.6478 0001209  79.5137 280.6175 14.19547787 14687
